QIANFAN-65              
1 62795U 25016L   26199.25414382  .00000096  00000+0  13010-3 0  9991
2 62795  88.9695  80.4658 0016023  75.1896 285.1029 13.51030530 76613
QIANFAN-66              
1 62796U 25016M   26199.20900128  .00000079  00000+0  10300-3 0  9995
2 62796  88.9715  80.4833 0017105  71.4241 288.8767 13.51023649 76653
QIANFAN-67              
1 62797U 25016N   26199.21312453  .00000073  00000+0  94095-4 0  9993
2 62797  88.9705  80.4871 0017094  77.4755 282.8308 13.51012279 76627
QIANFAN-68              
1 62798U 25016P   26199.27876369  .00000073  00000+0  93889-4 0  9991
2 62798  88.9709  80.5332 0017166  75.4143 284.8910 13.51025004 76614
QIANFAN-69              
1 62799U 25016Q   26199.22116343  .00000090  00000+0  11983-3 0  9999
2 62799  88.9688  80.3623 0017904  76.8359 283.4788 13.51018882 76643
QIANFAN-70              
1 62800U 25016R   26199.23769783  .00000076  00000+0  98784-4 0  9994
2 62800  88.9708  80.5445 0017466  68.2862 292.0147 13.51017234 76601
QIANFAN-71              
1 62801U 25016S   26199.23370664  .00000088  00000+0  11759-3 0  9990
2 62801  88.9702  80.5112 0017812  79.9554 280.3606 13.51021264 76607
QIANFAN-72              
1 62802U 25016T   26199.25000237  .00000094  00000+0  12694-3 0  9995
2 62802  88.9693  80.5017 0021058  86.4335 273.9224 13.51014768 76591
QIANFAN-73              
1 63159U 25046A   26199.27698324  .00000119  00000+0  16576-3 0  9997
2 63159  88.9723 297.4536 0014390 206.2766 153.7657 13.51015550 76783
QIANFAN-74              
1 63160U 25046B   26199.26069840  .00000116  00000+0  16121-3 0  9996
2 63160  88.9723 297.3450 0002535 105.0791 255.0641 13.51023394 76842
QIANFAN-75              
1 63161U 25046C   26199.24829712  .00000098  00000+0  13286-3 0  9995
2 63161  88.9724 297.5828 0015368 210.2054 149.8213 13.51015768 76711
QIANFAN-76              
1 63162U 25046D   26199.24413421  .00000126  00000+0  17602-3 0  9990
2 63162  88.9725 297.5632 0012898 209.2498 150.7932 13.51014878 76722
QIANFAN-77              
1 63163U 25046E   26199.27271298  .00000222  00000+0  15168-3 0  9990
2 63163  88.9726 293.7754 0017263 119.1776 241.1130 13.96222977 78802
QIANFAN-78              
1 63164U 25046F   26199.28533918  .00000111  00000+0  15333-3 0  9993
2 63164  88.9724 297.4208 0014190 212.1282 147.9006 13.51010150 76800
QIANFAN-79              
1 63165U 25046G   26199.24001169  .00000116  00000+0  16035-3 0  9993
2 63165  88.9727 297.5409 0014035 210.6164 149.4170 13.51020235 76745
QIANFAN-80              
1 63166U 25046H   26199.25656742  .00000118  00000+0  16380-3 0  9993
2 63166  88.9724 297.2402 0012717 214.5223 145.5103 13.51017279 76902
