{"fetched_at":"2026-07-18T17:29:34.864Z","source":"https://celestrak.org/NORAD/elements/gp.php?GROUP=qianfan&FORMAT=JSON","constellation":"qianfan","records":[{"OBJECT_NAME":"QIANFAN-65","OBJECT_ID":"2025-016L","EPOCH":"2026-07-18T06:05:58.026048","CLASSIFICATION_TYPE":"U","MEAN_MOTION":13.5103053,"ECCENTRICITY":0.00160236,"INCLINATION":88.9695,"RA_OF_ASC_NODE":80.4658,"ARG_OF_PERICENTER":75.1896,"MEAN_ANOMALY":285.1029,"EPHEMERIS_TYPE":0,"NORAD_CAT_ID":62795,"ELEMENT_SET_NO":999,"REV_AT_EPOCH":7661,"BSTAR":0.00013009834,"MEAN_MOTION_DOT":9.6e-7,"MEAN_MOTION_DDOT":0},{"OBJECT_NAME":"QIANFAN-66","OBJECT_ID":"2025-016M","EPOCH":"2026-07-18T05:00:57.710592","CLASSIFICATION_TYPE":"U","MEAN_MOTION":13.51023649,"ECCENTRICITY":0.00171053,"INCLINATION":88.9715,"RA_OF_ASC_NODE":80.4833,"ARG_OF_PERICENTER":71.4241,"MEAN_ANOMALY":288.8767,"EPHEMERIS_TYPE":0,"NORAD_CAT_ID":62796,"ELEMENT_SET_NO":999,"REV_AT_EPOCH":7665,"BSTAR":0.00010300397,"MEAN_MOTION_DOT":7.9e-7,"MEAN_MOTION_DDOT":0},{"OBJECT_NAME":"QIANFAN-67","OBJECT_ID":"2025-016N","EPOCH":"2026-07-18T05:06:53.959392","CLASSIFICATION_TYPE":"U","MEAN_MOTION":13.51012279,"ECCENTRICITY":0.00170943,"INCLINATION":88.9705,"RA_OF_ASC_NODE":80.4871,"ARG_OF_PERICENTER":77.4755,"MEAN_ANOMALY":282.8308,"EPHEMERIS_TYPE":0,"NORAD_CAT_ID":62797,"ELEMENT_SET_NO":999,"REV_AT_EPOCH":7662,"BSTAR":0.000094095448,"MEAN_MOTION_DOT":7.3e-7,"MEAN_MOTION_DDOT":0},{"OBJECT_NAME":"QIANFAN-68","OBJECT_ID":"2025-016P","EPOCH":"2026-07-18T06:41:25.182816","CLASSIFICATION_TYPE":"U","MEAN_MOTION":13.51025004,"ECCENTRICITY":0.00171661,"INCLINATION":88.9709,"RA_OF_ASC_NODE":80.5332,"ARG_OF_PERICENTER":75.4143,"MEAN_ANOMALY":284.891,"EPHEMERIS_TYPE":0,"NORAD_CAT_ID":62798,"ELEMENT_SET_NO":999,"REV_AT_EPOCH":7661,"BSTAR":0.000093889478,"MEAN_MOTION_DOT":7.3e-7,"MEAN_MOTION_DDOT":0},{"OBJECT_NAME":"QIANFAN-69","OBJECT_ID":"2025-016Q","EPOCH":"2026-07-18T05:18:28.520352","CLASSIFICATION_TYPE":"U","MEAN_MOTION":13.51018882,"ECCENTRICITY":0.00179048,"INCLINATION":88.9688,"RA_OF_ASC_NODE":80.3623,"ARG_OF_PERICENTER":76.8359,"MEAN_ANOMALY":283.4788,"EPHEMERIS_TYPE":0,"NORAD_CAT_ID":62799,"ELEMENT_SET_NO":999,"REV_AT_EPOCH":7664,"BSTAR":0.00011982894,"MEAN_MOTION_DOT":9e-7,"MEAN_MOTION_DDOT":0},{"OBJECT_NAME":"QIANFAN-70","OBJECT_ID":"2025-016R","EPOCH":"2026-07-18T05:42:17.092512","CLASSIFICATION_TYPE":"U","MEAN_MOTION":13.51017234,"ECCENTRICITY":0.00174661,"INCLINATION":88.9708,"RA_OF_ASC_NODE":80.5445,"ARG_OF_PERICENTER":68.2862,"MEAN_ANOMALY":292.0147,"EPHEMERIS_TYPE":0,"NORAD_CAT_ID":62800,"ELEMENT_SET_NO":999,"REV_AT_EPOCH":7660,"BSTAR":0.000098783511,"MEAN_MOTION_DOT":7.6e-7,"MEAN_MOTION_DDOT":0},{"OBJECT_NAME":"QIANFAN-71","OBJECT_ID":"2025-016S","EPOCH":"2026-07-18T05:36:32.253696","CLASSIFICATION_TYPE":"U","MEAN_MOTION":13.51021264,"ECCENTRICITY":0.00178126,"INCLINATION":88.9702,"RA_OF_ASC_NODE":80.5112,"ARG_OF_PERICENTER":79.9554,"MEAN_ANOMALY":280.3606,"EPHEMERIS_TYPE":0,"NORAD_CAT_ID":62801,"ELEMENT_SET_NO":999,"REV_AT_EPOCH":7660,"BSTAR":0.00011758532,"MEAN_MOTION_DOT":8.8e-7,"MEAN_MOTION_DDOT":0},{"OBJECT_NAME":"QIANFAN-72","OBJECT_ID":"2025-016T","EPOCH":"2026-07-18T06:00:00.204768","CLASSIFICATION_TYPE":"U","MEAN_MOTION":13.51014768,"ECCENTRICITY":0.00210586,"INCLINATION":88.9693,"RA_OF_ASC_NODE":80.5017,"ARG_OF_PERICENTER":86.4335,"MEAN_ANOMALY":273.9224,"EPHEMERIS_TYPE":0,"NORAD_CAT_ID":62802,"ELEMENT_SET_NO":999,"REV_AT_EPOCH":7659,"BSTAR":0.00012693808,"MEAN_MOTION_DOT":9.4e-7,"MEAN_MOTION_DDOT":0},{"OBJECT_NAME":"QIANFAN-73","OBJECT_ID":"2025-046A","EPOCH":"2026-07-18T06:38:51.351936","CLASSIFICATION_TYPE":"U","MEAN_MOTION":13.5101555,"ECCENTRICITY":0.001439,"INCLINATION":88.9723,"RA_OF_ASC_NODE":297.4536,"ARG_OF_PERICENTER":206.2766,"MEAN_ANOMALY":153.7657,"EPHEMERIS_TYPE":0,"NORAD_CAT_ID":63159,"ELEMENT_SET_NO":999,"REV_AT_EPOCH":7678,"BSTAR":0.0001657608,"MEAN_MOTION_DOT":0.00000119,"MEAN_MOTION_DDOT":0},{"OBJECT_NAME":"QIANFAN-74","OBJECT_ID":"2025-046B","EPOCH":"2026-07-18T06:15:24.341760","CLASSIFICATION_TYPE":"U","MEAN_MOTION":13.51023394,"ECCENTRICITY":0.00025354,"INCLINATION":88.9723,"RA_OF_ASC_NODE":297.345,"ARG_OF_PERICENTER":105.0791,"MEAN_ANOMALY":255.0641,"EPHEMERIS_TYPE":0,"NORAD_CAT_ID":63160,"ELEMENT_SET_NO":999,"REV_AT_EPOCH":7684,"BSTAR":0.00016121333,"MEAN_MOTION_DOT":0.00000116,"MEAN_MOTION_DDOT":0},{"OBJECT_NAME":"QIANFAN-75","OBJECT_ID":"2025-046C","EPOCH":"2026-07-18T05:57:32.871168","CLASSIFICATION_TYPE":"U","MEAN_MOTION":13.51015768,"ECCENTRICITY":0.00153682,"INCLINATION":88.9724,"RA_OF_ASC_NODE":297.5828,"ARG_OF_PERICENTER":210.2054,"MEAN_ANOMALY":149.8213,"EPHEMERIS_TYPE":0,"NORAD_CAT_ID":63161,"ELEMENT_SET_NO":999,"REV_AT_EPOCH":7671,"BSTAR":0.00013286053,"MEAN_MOTION_DOT":9.8e-7,"MEAN_MOTION_DDOT":0},{"OBJECT_NAME":"QIANFAN-76","OBJECT_ID":"2025-046D","EPOCH":"2026-07-18T05:51:33.195744","CLASSIFICATION_TYPE":"U","MEAN_MOTION":13.51014878,"ECCENTRICITY":0.00128981,"INCLINATION":88.9725,"RA_OF_ASC_NODE":297.5632,"ARG_OF_PERICENTER":209.2498,"MEAN_ANOMALY":150.7932,"EPHEMERIS_TYPE":0,"NORAD_CAT_ID":63162,"ELEMENT_SET_NO":999,"REV_AT_EPOCH":7672,"BSTAR":0.00017602445,"MEAN_MOTION_DOT":0.00000126,"MEAN_MOTION_DDOT":0},{"OBJECT_NAME":"QIANFAN-77","OBJECT_ID":"2025-046E","EPOCH":"2026-07-18T06:32:42.401472","CLASSIFICATION_TYPE":"U","MEAN_MOTION":13.96222977,"ECCENTRICITY":0.0017263,"INCLINATION":88.9726,"RA_OF_ASC_NODE":293.7754,"ARG_OF_PERICENTER":119.1776,"MEAN_ANOMALY":241.113,"EPHEMERIS_TYPE":0,"NORAD_CAT_ID":63163,"ELEMENT_SET_NO":999,"REV_AT_EPOCH":7880,"BSTAR":0.00015167824,"MEAN_MOTION_DOT":0.00000222,"MEAN_MOTION_DDOT":0},{"OBJECT_NAME":"QIANFAN-78","OBJECT_ID":"2025-046F","EPOCH":"2026-07-18T06:50:53.305152","CLASSIFICATION_TYPE":"U","MEAN_MOTION":13.5101015,"ECCENTRICITY":0.00141903,"INCLINATION":88.9724,"RA_OF_ASC_NODE":297.4208,"ARG_OF_PERICENTER":212.1282,"MEAN_ANOMALY":147.9006,"EPHEMERIS_TYPE":0,"NORAD_CAT_ID":63164,"ELEMENT_SET_NO":999,"REV_AT_EPOCH":7680,"BSTAR":0.00015333069,"MEAN_MOTION_DOT":0.00000111,"MEAN_MOTION_DDOT":0},{"OBJECT_NAME":"QIANFAN-79","OBJECT_ID":"2025-046G","EPOCH":"2026-07-18T05:45:37.010016","CLASSIFICATION_TYPE":"U","MEAN_MOTION":13.51020235,"ECCENTRICITY":0.00140358,"INCLINATION":88.9727,"RA_OF_ASC_NODE":297.5409,"ARG_OF_PERICENTER":210.6164,"MEAN_ANOMALY":149.417,"EPHEMERIS_TYPE":0,"NORAD_CAT_ID":63165,"ELEMENT_SET_NO":999,"REV_AT_EPOCH":7674,"BSTAR":0.00016034957,"MEAN_MOTION_DOT":0.00000116,"MEAN_MOTION_DDOT":0},{"OBJECT_NAME":"QIANFAN-80","OBJECT_ID":"2025-046H","EPOCH":"2026-07-18T06:09:27.425088","CLASSIFICATION_TYPE":"U","MEAN_MOTION":13.51017279,"ECCENTRICITY":0.0012717,"INCLINATION":88.9724,"RA_OF_ASC_NODE":297.2402,"ARG_OF_PERICENTER":214.5223,"MEAN_ANOMALY":145.5103,"EPHEMERIS_TYPE":0,"NORAD_CAT_ID":63166,"ELEMENT_SET_NO":999,"REV_AT_EPOCH":7690,"BSTAR":0.00016379742,"MEAN_MOTION_DOT":0.00000118,"MEAN_MOTION_DDOT":0}]}
